GALAXY 3C (G-3C)        
1 27445U 02030A   26159.89525462 -.00000136  00000+0  00000+0 0  9990
2 27445   3.7087  78.0852 0001786  32.4950  14.1421  1.00271734 46417
INTELSAT 906 (IS-906)   
1 27513U 02041A   26160.03065792  .00000029  00000+0  00000+0 0  9991
2 27513   5.7831  73.0205 0004651 358.8696 260.6878  1.00271266 86941
NIMIQ 2                 
1 27632U 02062A   26159.62658890 -.00000056  00000+0  00000+0 0  9997
2 27632   9.4258  56.9898 0005678  17.4325 298.9696  1.00271904 44093
USA 167                 
1 27691U 03008A   26160.11900796  .00000015  00000+0  00000+0 0  9998
2 27691  10.9447  43.4790 0003872 314.1374 181.0057  1.00273864  6696
USA 169 (MILSTAR-2 4)   
1 27711U 03012A   26159.94409441 -.00000219  00000+0  00000+0 0  9993
2 27711  12.3366  29.9065 0100946   8.8670 350.5504  1.00270335 32863
ASIASAT 4               
1 27718U 03014A   26159.87768294 -.00000206  00000+0  00000+0 0  9994
2 27718   4.6841  75.8490 0002929   4.4207 280.4984  1.00272432 45210
HELLAS-SAT 2            
1 27811U 03020A   26160.09211582 -.00000069  00000+0  00000+0 0  9991
2 27811   7.3336  67.9800 0002628   9.6934 202.9523  1.00271392 42769
THURAYA-2               
1 27825U 03026A   26159.78125000  .00000137  00000+0  00000+0 0  9990
2 27825   8.8257  32.0302 0003153   6.3511 184.0331  1.00273078 84262
OPTUS C1                
1 27831U 03028B   26159.57706480 -.00000136  00000+0  00000+0 0  9993
2 27831   6.8672  69.5133 0005718   7.3338 183.5675  1.00273783 52973
USA 170                 
1 27875U 03040A   26159.92914765  .00000139  00000+0  00000+0 0  9993
2 27875  10.4821  48.0247 0001887  33.6399 174.4630  1.00277144 32915
GALAXY 13 (HORIZONS-1)  
1 27954U 03044A   26160.09830476  .00000149  00000+0  00000+0 0  9992
2 27954   1.3993  83.9575 0002103 350.0984  68.8041  1.00273590 46493
YAMAL 202               
1 28089U 03053A   26159.58995525 -.00000065  00000+0  00000+0 0  9999
2 28089   6.3225  71.0410 0003342 353.2483 208.6669  1.00273032 82612
UFO 11 (USA 174)        
1 28117U 03057A   26159.75972898 -.00000093  00000+0  00000+0 0  9993
2 28117   8.9350  33.8729 0002550  44.5000 167.8303  1.00274079 82360
USA 176 (DSP 22)        
1 28158U 04004A   26160.04649647 -.00000284  00000+0  00000+0 0  9990
2 28158  12.0508  26.1284 0001128 297.6121 259.2573  1.00407916 32854
ABS-4 (MOBISAT-1)       
1 28184U 04007A   26159.85692257  .00000055  00000+0  00000+0 0  9999
2 28184   6.0215  72.1080 0005162   3.1892 191.3837  1.00271458 52258
INTELSAT 10-02          
1 28358U 04022A   26160.05649573  .00000005  00000+0  00000+0 0  9991
2 28358   0.0151 336.1514 0000525 195.6343 104.9809  1.00269264 80471
ANIK F2                 
1 28378U 04027A   26160.10601811 -.00000033  00000+0  00000+0 0  9999
2 28378   3.2651  79.5545 0004281   3.3297 101.6426  1.00271781 41182
AMC-15                  
1 28446U 04041A   26160.10714478 -.00000072  00000+0  00000+0 0  9998
2 28446   0.0298 304.3390 0002298 138.7285 107.9492  1.00272015 79222
NSS-10                  
1 28526U 05003A   26160.17169426 -.00000236  00000+0  00000+0 0  9992
2 28526   6.4285  70.5501 0002925   8.3699 202.9949  1.00271221 53077
INMARSAT 4-F1           
1 28628U 05009A   26159.79327278  .00000047  00000+0  00000+0 0  9997
2 28628   5.1558  42.7387 0002707  38.2720 279.8694  1.00271982 77583
DIRECTV 8               
1 28659U 05019A   26160.10437145  .00000018  00000+0  00000+0 0  9992
2 28659   0.0178   9.8409 0002949  71.8033  94.3671  1.00271609 76991
GALAXY 28 (G-28)        
1 28702U 05022A   26160.14558604 -.00000184  00000+0  00000+0 0  9998
2 28702   3.2789  79.0295 0002845 354.6455 209.1556  1.00272331 51893
THAICOM 4               
1 28786U 05028A   26160.08021727 -.00000346  00000+0  00000+0 0  9990
2 28786   0.2234  86.0291 0001874 345.7748 334.0447  1.00272131 52164
ANIK F1R                
1 28868U 05036A   26159.89256794 -.00000059  00000+0  00000+0 0  9992
2 28868   4.2905  76.6819 0004278   5.2871  29.3599  1.00272510 46370
SYRACUSE 3A             
1 28885U 05041B   26159.99456042  .00000145  00000+0  00000+0 0  9991
2 28885   4.6228  75.9376 0003092 340.3728 245.7398  1.00271388 75665
INMARSAT 4-F2           
1 28899U 05044A   26160.01362718 -.00000245  00000+0  00000+0 0  9992
2 28899   5.0831  43.7030 0003031  33.6300 328.4612  1.00273314 75441
METEOSAT-9 (MSG-2)      
1 28912U 05049B   26159.78055565  .00000137  00000+0  00000+0 0  9993
2 28912   9.3415  54.2486 0001700 350.9221 178.6781  1.00268863  6913
EUTELSAT 174A           
1 28924U 05052A   26159.59203527  .00000024  00000+0  00000+0 0  9997
2 28924   4.1968  76.6319 0006359   1.4418 206.0255  1.00269812 52240
ECHOSTAR 10             
1 28935U 06003A   26160.10619146 -.00000039  00000+0  00000+0 0  9990
2 28935   0.0181   1.7196 0001987  43.9647 139.8574  1.00271326 74382
SPAINSAT                
1 28945U 06007A   26159.37075316 -.00000201  00000+0  00000+0 0  9998
2 28945   0.5393  86.6925 0004886 349.5440 283.8269  1.00272401 74131
JCSAT-5A                
1 29045U 06010A   26160.01154715 -.00000311  00000+0  00000+0 0  9990
2 29045   1.0872  84.3142 0002075  12.6471 296.6283  1.00269595 73684
ASTRA 1KR               
1 29055U 06012A   26160.13173095  .00000136  00000+0  00000+0 0  9992
2 29055   0.4520  83.2052 0003470 353.5721 247.1591  1.00272674 45618
